{
  "tenantId": "mz",
  "moduleName": "lcms",
  "court": [
    {
      "address": {
        "addressLine1": "Shivajinagar",
        "addressLine2": "Maharashtra",
        "city": "Pune",
        "pincode": "4110051"
      },
      "name": "Pune District Court",
      "type": "District Court",
      "code": "PDC",
      "active": true,
      "tenantId": "mz"
    },
    {
      "address": {
        "addressLine1": "Shivajinagar",
        "addressLine2": "Pune",
        "city": "Pune",
        "pincode": "411005"
      },
      "name": "Pune District Court",
      "type": "Motor Accident Claim Tribunal",
      "code": "PDCMACT",
      "active": false,
      "tenantId": "mz"
    },
    {
      "address": {
        "addressLine1": "Opp. Nav Sonali Hsg, Near Ganesh Cinema",
        "addressLine2": "Maharashtra",
        "city": "Thane, Mumbai",
        "pincode": "400601"
      },
      "name": "National Human Rights Commission",
      "type": "National Human Rights Commission",
      "code": "NHRC",
      "active": true,
      "tenantId": "mz"
    },
    {
      "address": {
        "addressLine1": "Supreme Court, Mandi House",
        "addressLine2": "New Delhi",
        "city": "New Delhi",
        "pincode": "110001"
      },
      "name": "Supreme Court of India",
      "type": "Supreme Court",
      "code": "SC",
      "active": true,
      "tenantId": "mz"
    },
    {
      "address": {
        "addressLine1": "Sher Shah Road, Near India Gate",
        "addressLine2": "New Delhi",
        "city": "New Delhi",
        "pincode": "110503"
      },
      "name": "High Court of Delhi",
      "type": "High Court",
      "code": "HCD",
      "active": true,
      "tenantId": "mz"
    },
    {
      "address": {
        "addressLine1": "Hajarimal Somani Marg, Opp. Chhatrapati Shivaji Terminus",
        "addressLine2": "Maharashtra",
        "city": "Mumbai",
        "pincode": "400001"
      },
      "name": "Maharashtra State Human Rights Commission",
      "type": "State Human Rights Commission Court",
      "code": "MSHRC",
      "active": true,
      "tenantId": "mz"
    },
    {
      "address": {
        "addressLine1": "B, 2, Swami Vivekanand Road, Vasant Baug Society, Maharshi Nagar",
        "addressLine2": "Maharashtra",
        "city": "Pune",
        "pincode": "411037"
      },
      "name": "Consumer Court",
      "type": "District Consumer Court",
      "code": "CC",
      "active": true,
      "tenantId": "mz"
    },
    {
      "address": {
        "addressLine1": "PMT Building, Swargate",
        "addressLine2": "Maharashtra",
        "city": "Pune",
        "pincode": "411042"
      },
      "name": "Company \u0026 Labour Court",
      "type": "Industrial Court",
      "code": "CLCIC",
      "active": true,
      "tenantId": "mz"
    },
    {
      "address": {
        "addressLine1": "Commercial Building-1, Pmt Building, Swargate",
        "addressLine2": "Maharashtra",
        "city": "Pune",
        "pincode": "411042"
      },
      "name": "Company \u0026 Labour Court",
      "type": "Labour Court",
      "code": "CLCLC",
      "active": true,
      "tenantId": "mz"
    },
    {
      "address": {
        "addressLine1": "Shivajinagar",
        "addressLine2": "Maharashtra",
        "city": "Pune",
        "pincode": "411005"
      },
      "name": "Pune District Court",
      "type": "Criminal Court",
      "code": "PDCCRC",
      "active": true,
      "tenantId": "mz"
    },
    {
      "address": {
        "addressLine1": "Shivajinagar",
        "addressLine2": "Maharashtra",
        "city": "Pune",
        "pincode": "411005"
      },
      "name": "Pune District Court",
      "type": "Civil Court",
      "code": "PDCCVC",
      "active": true,
      "tenantId": "mz"
    },
    {
      "address": {
        "addressLine1": "Shivajinagar",
        "addressLine2": "Maharashtra",
        "city": "Pune",
        "pincode": "411005"
      },
      "name": "Pune District Court",
      "type": "Session Court",
      "code": "PDCSEC",
      "active": true,
      "tenantId": "mz"
    },
    {
      "address": {
        "addressLine1": "Shivajinagar",
        "addressLine2": "Maharashtra",
        "city": "Pune",
        "pincode": "411005"
      },
      "name": "Pune District Court",
      "type": "308 Court",
      "code": "PDC308C",
      "active": true,
      "tenantId": "mz"
    },
    {
      "address": {
        "addressLine1": null,
        "addressLine2": "Maharashtra",
        "city": "Pune",
        "pincode": null
      },
      "name": "Judicial Magistrate of First Class Court",
      "type": "Judicial Magistrate of First Class Court",
      "code": "JMFCC",
      "active": true,
      "tenantId": "mz"
    },
    {
      "address": {
        "addressLine1": "Agarkar Nagar",
        "addressLine2": "Maharashtra",
        "city": "Pune",
        "pincode": "411001"
      },
      "name": "National Green Tribunal Western Zone",
      "type": "National Green Tribunal Court",
      "code": "NGTC",
      "active": true,
      "tenantId": "mz"
    },
    {
      "address": {
        "addressLine1": "Collector Office",
        "addressLine2": "Maharashtra",
        "city": "Pune",
        "pincode": "411001"
      },
      "name": "District Collector",
      "type": "Quasi Judicator",
      "code": "DC",
      "active": true,
      "tenantId": "mz"
    },
    {
      "name": "Supreme Court of India",
      "code": "SC1",
      "address": {
        "addressLine1": "Sher Shah Road, Near India Gate",
        "addressLine2": "New Delhi",
        "city": "New Delhi",
        "pincode": "110503"
      },
      "active": true,
      "tenantId": "mz"
    },
    {
      "name": "Consumer Court",
      "code": "CC1",
      "address": {
        "addressLine1": "PMT Building, Swargate",
        "addressLine2": "Maharastra",
        "city": "Maharastra",
        "pincode": "411042"
      },
      "active": true,
      "tenantId": "mz"
    },
    {
      "name": "SriNagar Court",
      "code": "SR",
      "address": {
        "addressLine1": "ss",
        "addressLine2": "Maharastra",
        "city": "Maharastra",
        "pincode": "411042"
      },
      "active": true,
      "tenantId": "mz"
    },
    {
      "name": "Consumer Court",
      "code": "SHSSJ1",
      "address": {
        "addressLine1": "PMT Building, Swargate",
        "addressLine2": "Maharastra",
        "city": "Maharastra",
        "pincode": "411042"
      },
      "active": true,
      "tenantId": "mz"
    },
    {
      "name": "SriNagar Court",
      "code": "SR2",
      "address": {
        "addressLine1": "PMT Building, Swargate",
        "addressLine2": "Maharastra",
        "city": "Maharastra",
        "pincode": "411042"
      },
      "active": true,
      "tenantId": "mz"
    },
    {
      "name": "SriNagar Court",
      "code": "SHSSJ2",
      "address": {
        "addressLine1": "PMT Building, Swargate",
        "addressLine2": "Maharastra",
        "city": "Maharastra",
        "pincode": "411042"
      },
      "active": true,
      "tenantId": "mz"
    },
    {
      "name": "Consumer Court",
      "code": "CC3",
      "address": {
        "addressLine1": "PMT Building, Swargate",
        "addressLine2": "Maharastra",
        "city": "Maharastra",
        "pincode": "411042"
      },
      "active": true,
      "tenantId": "mz"
    },
    {
      "name": "Consumer Court",
      "code": "CS4",
      "address": {
        "addressLine1": "ss",
        "addressLine2": "Pune",
        "city": "Maharastra",
        "pincode": "411042"
      },
      "active": true,
      "tenantId": "mz"
    },
    {
      "name": "Consumer Court",
      "code": "CC5",
      "address": {
        "addressLine1": "ss",
        "addressLine2": "Pune",
        "city": "Maharastra",
        "pincode": "411042"
      },
      "active": true,
      "tenantId": "mz"
    },
    {
      "name": "SriNagar",
      "code": "SHSSJ4",
      "address": {
        "addressLine1": "ss",
        "addressLine2": "Maharastra",
        "city": "Pune",
        "pincode": "411042"
      },
      "active": true,
      "tenantId": "mz"
    },
    {
      "name": "Bangalore Court",
      "code": "BZ1",
      "address": {
        "addressLine1": "Shrinagar",
        "addressLine2": "Bangalore",
        "city": "Bangalore",
        "pincode": "560048"
      },
      "active": true,
      "tenantId": "mz"
    },
    {
      "name": "Consumer Court",
      "code": "CC6",
      "address": {
        "addressLine1": "PMT Building, Swargate",
        "addressLine2": "Pune",
        "city": "Maharastra",
        "pincode": "560048"
      },
      "active": true,
      "tenantId": "mz"
    },
    {
      "name": "court_2",
      "code": "002",
      "address": {
        "addressLine1": "address_line1",
        "addressLine2": "address_line2",
        "city": "Combay",
        "pincode": "50025"
      },
      "active": true,
      "tenantId": "mz"
    },
    {
      "name": "maha court",
      "code": "122",
      "address": {
        "addressLine1": "address 1",
        "addressLine2": "address 2",
        "city": "bombay",
        "pincode": "12345"
      },
      "active": true,
      "tenantId": "mz"
    },
    {
      "name": "Financial court",
      "code": "202",
      "address": {
        "addressLine1": "first ",
        "addressLine2": "second",
        "city": "Aurangabad",
        "pincode": "500025"
      },
      "active": true,
      "tenantId": "mz"
    },
    {
      "name": "PTestt",
      "code": "001",
      "address": {
        "addressLine1": "Test",
        "addressLine2": "Test",
        "city": "Test",
        "pincode": "Test"
      },
      "active": true,
      "tenantId": "mz"
    },
    {
      "name": "Court Name 2",
      "code": "3334",
      "address": {
        "addressLine1": "street#1",
        "addressLine2": "3rd cross Road",
        "city": "Pune",
        "pincode": "411042"
      },
      "active": true,
      "tenantId": "mz"
    },
    {
      "name": "TTest",
      "code": "003",
      "address": {
        "addressLine1": "Test",
        "addressLine2": "Test",
        "city": "Test",
        "pincode": "Test"
      },
      "active": true,
      "tenantId": "mz"
    },
    {
      "name": "Ftest1",
      "code": "004",
      "address": {
        "addressLine1": "TEst",
        "addressLine2": "TEst",
        "city": "TEst",
        "pincode": "TEst"
      },
      "active": true,
      "tenantId": "mz"
    },
    {
      "name": "Prakash Cour",
      "code": "11122",
      "address": {
        "addressLine1": "address 1",
        "addressLine2": "address 2",
        "city": "Bombay",
        "pincode": "2233"
      },
      "active": true,
      "tenantId": "mz"
    },
    {
      "name": "qwerty",
      "code": "1122",
      "address": {
        "addressLine1": "test1",
        "addressLine2": "test2",
        "city": "bombay",
        "pincode": "112233"
      },
      "active": true,
      "tenantId": "mz"
    },
    {
      "name": "test data",
      "code": "778899",
      "address": {
        "addressLine1": "address 1",
        "addressLine2": "adress 1",
        "city": "Agartala",
        "pincode": "112255"
      },
      "active": true,
      "tenantId": "mz"
    },
    {
      "name": "testAfterQaDeployment",
      "code": "563",
      "address": {
        "addressLine1": "adress 1",
        "addressLine2": "address 2",
        "city": "Bombay",
        "pincode": "12345"
      },
      "active": true,
      "tenantId": "mz"
    },
    {
      "name": "Court Name 4",
      "code": "CN4",
      "address": {
        "addressLine1": "street#2",
        "addressLine2": "3rd cross Road",
        "city": "Maharastra",
        "pincode": "411005"
      },
      "active": true,
      "tenantId": "mz"
    },
    {
      "name": "FTTest",
      "code": "009",
      "address": {
        "addressLine1": "Test",
        "addressLine2": "Test",
        "city": "Test",
        "pincode": "Test"
      },
      "active": true,
      "tenantId": "mz"
    },
    {
      "name": "test",
      "code": "112233",
      "address": {
        "addressLine1": "est 1",
        "addressLine2": "test 1",
        "city": "aurangabad",
        "pincode": "201588"
      },
      "active": true,
      "tenantId": "mz"
    },
    {
      "name": "GTest",
      "code": "010",
      "address": {
        "addressLine1": "Test",
        "addressLine2": "Test",
        "city": "test",
        "pincode": "test"
      },
      "active": true,
      "tenantId": "mz"
    },
    {
      "name": "HTest",
      "code": "011",
      "address": {
        "addressLine1": "Test",
        "addressLine2": "Test",
        "city": "Test",
        "pincode": "Test"
      },
      "active": true,
      "tenantId": "mz"
    },
    {
      "name": "www",
      "code": "ww",
      "address": {
        "addressLine1": "www",
        "addressLine2": "www",
        "city": "www",
        "pincode": "123"
      },
      "active": true,
      "tenantId": "mz"
    },
    {
      "name": "courtali",
      "code": "ali",
      "address": {
        "addressLine1": "address1",
        "addressLine2": "address 2",
        "city": "Bombay",
        "pincode": "10023"
      },
      "active": false,
      "tenantId": "mz"
    },
    {
      "name": "Consumer Court Kurla",
      "code": "201",
      "address": {
        "addressLine1": "Golden street",
        "addressLine2": "Nariman tower",
        "city": "Mumbai",
        "pincode": "400055555555555666"
      },
      "active": true,
      "tenantId": "mz"
    },
    {
      "name": "PPteste_updated_2",
      "code": "PTY01",
      "address": {
        "addressLine1": "teST",
        "addressLine2": "teST",
        "city": "tEST",
        "pincode": "tEST1"
      },
      "active": true,
      "tenantId": "mz"
    },
    {
      "name": "test",
      "code": "test",
      "address": {
        "addressLine1": "test",
        "addressLine2": "test",
        "city": "test",
        "pincode": "1234586"
      },
      "active": true,
      "tenantId": "mz"
    },
    {
      "name": "Court Name 1 ",
      "code": "CN1",
      "address": {
        "addressLine1": "36/a vangal Rao Nagar",
        "addressLine2": "village-basopatti",
        "city": "Madhubani",
        "pincode": "939393"
      },
      "active": true,
      "tenantId": "mz"
    },
    {
      "name": "Court Name 2 ",
      "code": "CN2",
      "address": {
        "addressLine1": "36/a vangal rao nagar",
        "addressLine2": "village-sukhbasi",
        "city": "Patna",
        "pincode": "939393"
      },
      "active": true,
      "tenantId": "mz"
    },
    {
      "name": "Court Name 3",
      "code": "CN3",
      "address": {
        "addressLine1": "village-sukhbasi",
        "addressLine2": "Village-Basopatti",
        "city": "Madhubani",
        "pincode": "847252"
      },
      "active": true,
      "tenantId": "mz"
    },
    {
      "name": "CourtName 23",
      "code": "CN23",
      "address": {
        "addressLine1": "Maharastra",
        "addressLine2": "India",
        "city": "Pune",
        "pincode": "456788"
      },
      "active": true,
      "tenantId": "mz"
    },
    {
      "name": "New Court 101",
      "code": "Court101",
      "address": {
        "addressLine1": "BTM",
        "addressLine2": "Karnataka",
        "city": "Bangalore",
        "pincode": "445566"
      },
      "active": true,
      "tenantId": "mz"
    },
    {
      "name": "1234",
      "code": "CN1234",
      "address": {
        "addressLine1": "street#1",
        "addressLine2": "3rd cross Road",
        "city": "Pune",
        "pincode": "411042"
      },
      "active": true,
      "tenantId": "mz"
    },
    {
      "name": "5678",
      "code": "CN5678",
      "address": {
        "addressLine1": "PMT Building, Swargate",
        "addressLine2": "3rd cross Road",
        "city": "Pune",
        "pincode": "411005"
      },
      "active": true,
      "tenantId": "mz"
    },
    {
      "name": "3456",
      "code": "CN3456",
      "address": {
        "addressLine1": "BTM",
        "addressLine2": "Karnataka",
        "city": "Bangalore",
        "pincode": "445566"
      },
      "active": true,
      "tenantId": "mz"
    },
    {
      "name": "Court Name 1234",
      "code": "CN 1234",
      "address": {
        "addressLine1": "street#2",
        "addressLine2": "Pune",
        "city": "Bangalore",
        "pincode": "411005"
      },
      "active": true,
      "tenantId": "mz"
    },
    {
      "name": "New Court",
      "code": "NC",
      "address": {
        "addressLine1": "street#1",
        "addressLine2": "Bangalore",
        "city": "Pune",
        "pincode": "411005"
      },
      "active": true,
      "tenantId": "mz"
    },
    {
      "name": "Court_Name_Murari_4",
      "code": "CNM4",
      "address": {
        "addressLine1": "Madhubani",
        "addressLine2": "Near By R.k Collage ",
        "city": "Madhubani",
        "pincode": "884848"
      },
      "active": true,
      "tenantId": "mz"
    }
  ]
}